NAYIF-1 (EO-88)         
1 42017U 17008BX  20125.75917129  .00001511  00000-0  60834-4 0  9994
2 42017  97.3624 193.9549 0007910 111.9702 248.2378 15.26386121178886
MAX VALIER SAT          
1 42778U 17036P   20126.16431449  .00000888  00000-0  41172-4 0  9991
2 42778  97.3090 180.9891 0012639 166.6772 193.4801 15.22547493159148
RADFXSAT (FOX-1B)       
1 43017U 17073E   20126.02011197  .00000231  00000-0  23604-4 0  9990
2 43017  97.7246  39.9314 0256746 191.5616 167.9631 14.78896839132743
FOX-1D (AO-92)          
1 43137U 18004AC  20126.15173822  .00000830  00000-0  37161-4 0  9994
2 43137  97.4478 197.6019 0008592 197.8148 162.2790 15.24045800128449
DIWATA-2B               
1 43678U 18084H   20126.07213676 -.00000269  00000-0 -21060-4 0  9994
2 43678  97.8767 244.4926 0009102 328.0246  32.0434 14.91621429 82557
ES'HAIL 2               
1 43700U 18090A   20125.78799414  .00000135  00000-0  00000-0 0  9990
2 43700   0.0159 274.2163 0001263 134.4159 123.9354  1.00273171  5278
FOX-1CLIFF (AO-95)      
1 43770U 18099N   20125.73493111  .00000456  00000-0  46939-4 0  9997
2 43770  97.7076 197.8722 0014056 349.0936  10.9978 14.94962205 77386
ITASAT 1                
1 43786U 18099AE  20125.74181485  .00000567  00000-0  56625-4 0  9999
2 43786  97.7092 198.2669 0014497 342.4029  17.6688 14.95305711 77404
JY1SAT (JO-97)          
1 43803U 18099AX  20126.16288487  .00000299  00000-0  32137-4 0  9990
2 43803  97.7054 198.5105 0014500 341.8307  18.2394 14.95480065 77460
PSAT2 (NO-104)          
1 44354U 19036R   20126.16830998  .00010574  00000-0  15405-3 0  9999
2 44354  28.5322 304.7599 0366291 208.9021 149.0819 15.02951433 47297
BRICSAT2 (NO-103)       
1 44355U 19036S   20125.79400930  .00018334  00000-0  25872-3 0  9998
2 44355  28.5322 300.7453 0346940 215.4313 142.2763 15.07827114 47318
JAISAT-1                
1 44419U 19038F   20126.16310588  .00000795  00000-0  48975-4 0  9994
2 44419  97.5350  88.2788 0019955 281.1765  78.7223 15.12721601 46053
DUCHIFAT-3              
1 44854U 19089C   20125.99902727  .00000361  00000-0  35609-4 0  9994
2 44854  36.9686 355.1532 0007193  62.3364 297.8117 14.99041132 21779
DOSAAF 85 (RS-44)       
1 44909U 19096E   20125.96705356  .00000010  00000-0  00000-0 0  9993
2 44909  82.5236  24.2098 0217205 328.4982  30.3278 12.79706840 16624
ORBITAL FACTORY 2 (OF-2)
1 45113U 19071C   20126.14117573  .00001244  00000-0  49745-4 0  9996
2 45113  51.6441 212.7536 0012645 261.1998  98.7552 15.33205689 14482
HUSKYSAT-1              
1 45119U 19071J   20125.66972861  .00001366  00000-0  53127-4 0  9991
2 45119  51.6438 214.8565 0011903 255.5838 104.3823 15.33436171 14404
